{
  "type": "FeatureCollection",
  "features": [
    {
      "type": "Feature",
      "properties": {
        "norad_id": 37867,
        "name": "COSMOS 2476 (744)",
        "group": "glo-ops",
        "lat": -52.5346518781172,
        "lon": 42.208462385091266,
        "alt_km": 19110.013509033328,
        "timestamp": "2025-12-08T08:59:01.026556+00:00",
        "meta_object_name": "COSMOS 2476 (744)",
        "meta_object_id": "2011-064A",
        "meta_epoch": "2025-12-07T12:05:38.490144",
        "meta_mean_motion": 2.13101284,
        "meta_eccentricity": 0.0024092,
        "meta_inclination": 65.1595,
        "meta_ra_of_asc_node": 79.3486,
        "meta_arg_of_pericenter": 233.8995,
        "meta_mean_anomaly": 117.1284,
        "meta_ephemeris_type": 0,
        "meta_classification_type": "U",
        "meta_norad_cat_id": 37867,
        "meta_element_set_no": 999,
        "meta_rev_at_epoch": 10967,
        "meta_bstar": 0,
        "meta_mean_motion_dot": -1.2e-07,
        "meta_mean_motion_ddot": 0,
        "tle_line1": "1 37867U 11064A   25341.50391771 -.00000012  00000+0  00000+0 0  9993",
        "tle_line2": "2 37867  65.1595  79.3486 0024092 233.8995 117.1284  2.13101284109676"
      },
      "geometry": {
        "type": "Point",
        "coordinates": [
          42.208462385091266,
          -52.5346518781172
        ]
      }
    },
    {
      "type": "Feature",
      "properties": {
        "norad_id": 37868,
        "name": "COSMOS 2477 (745)",
        "group": "glo-ops",
        "lat": 52.197034656684345,
        "lon": -137.17829463822156,
        "alt_km": 19146.68411720515,
        "timestamp": "2025-12-08T08:59:01.026568+00:00",
        "meta_object_name": "COSMOS 2477 (745)",
        "meta_object_id": "2011-064B",
        "meta_epoch": "2025-12-07T23:52:45.427008",
        "meta_mean_motion": 2.13102702,
        "meta_eccentricity": 0.00211763,
        "meta_inclination": 65.1661,
        "meta_ra_of_asc_node": 79.4096,
        "meta_arg_of_pericenter": 234.5496,
        "meta_mean_anomaly": 314.1036,
        "meta_ephemeris_type": 0,
        "meta_classification_type": "U",
        "meta_norad_cat_id": 37868,
        "meta_element_set_no": 999,
        "meta_rev_at_epoch": 10968,
        "meta_bstar": 0,
        "meta_mean_motion_dot": -1.2e-07,
        "meta_mean_motion_ddot": 0,
        "tle_line1": "1 37868U 11064B   25341.99497022 -.00000012  00000+0  00000+0 0  9993",
        "tle_line2": "2 37868  65.1661  79.4096 0021176 234.5496 314.1036  2.13102702109684"
      },
      "geometry": {
        "type": "Point",
        "coordinates": [
          -137.17829463822156,
          52.197034656684345
        ]
      }
    },
    {
      "type": "Feature",
      "properties": {
        "norad_id": 37869,
        "name": "COSMOS 2475 (743)",
        "group": "glo-ops",
        "lat": 61.55497254631756,
        "lon": 137.98195586777277,
        "alt_km": 19189.630806046232,
        "timestamp": "2025-12-08T08:59:01.026579+00:00",
        "meta_object_name": "COSMOS 2475 (743)",
        "meta_object_id": "2011-064C",
        "meta_epoch": "2025-12-07T08:11:48.953184",
        "meta_mean_motion": 2.13101364,
        "meta_eccentricity": 0.00262336,
        "meta_inclination": 65.1729,
        "meta_ra_of_asc_node": 79.4516,
        "meta_arg_of_pericenter": 248.5614,
        "meta_mean_anomaly": 114.7737,
        "meta_ephemeris_type": 0,
        "meta_classification_type": "U",
        "meta_norad_cat_id": 37869,
        "meta_element_set_no": 999,
        "meta_rev_at_epoch": 10968,
        "meta_bstar": 0,
        "meta_mean_motion_dot": -1.3e-07,
        "meta_mean_motion_ddot": 0,
        "tle_line1": "1 37869U 11064C   25341.34153881 -.00000013  00000+0  00000+0 0  9996",
        "tle_line2": "2 37869  65.1729  79.4516 0026233 248.5614 114.7737  2.13101364109688"
      },
      "geometry": {
        "type": "Point",
        "coordinates": [
          137.98195586777277,
          61.55497254631756
        ]
      }
    },
    {
      "type": "Feature",
      "properties": {
        "norad_id": 39155,
        "name": "COSMOS 2485 (747)",
        "group": "glo-ops",
        "lat": -11.522427982932147,
        "lon": 74.648220650259,
        "alt_km": 19161.338041403655,
        "timestamp": "2025-12-08T08:59:01.026591+00:00",
        "meta_object_name": "COSMOS 2485 (747)",
        "meta_object_id": "2013-019A",
        "meta_epoch": "2025-12-05T02:32:45.729312",
        "meta_mean_motion": 2.13102875,
        "meta_eccentricity": 0.00246247,
        "meta_inclination": 65.3094,
        "meta_ra_of_asc_node": 80.124,
        "meta_arg_of_pericenter": 229.2984,
        "meta_mean_anomaly": 130.4888,
        "meta_ephemeris_type": 0,
        "meta_classification_type": "U",
        "meta_norad_cat_id": 39155,
        "meta_element_set_no": 999,
        "meta_rev_at_epoch": 9814,
        "meta_bstar": 0,
        "meta_mean_motion_dot": -2.1e-07,
        "meta_mean_motion_ddot": 0,
        "tle_line1": "1 39155U 13019A   25339.10608483 -.00000021  00000+0  00000+0 0  9991",
        "tle_line2": "2 39155  65.3094  80.1240 0024624 229.2984 130.4888  2.13102875 98144"
      },
      "geometry": {
        "type": "Point",
        "coordinates": [
          74.648220650259,
          -11.522427982932147
        ]
      }
    },
    {
      "type": "Feature",
      "properties": {
        "norad_id": 39620,
        "name": "COSMOS 2492 (754)",
        "group": "glo-ops",
        "lat": 17.273561416827704,
        "lon": -31.40901718787948,
        "alt_km": 19114.180612197277,
        "timestamp": "2025-12-08T08:59:01.026602+00:00",
        "meta_object_name": "COSMOS 2492 (754)",
        "meta_object_id": "2014-012A",
        "meta_epoch": "2025-12-06T22:36:05.505696",
        "meta_mean_motion": 2.13103091,
        "meta_eccentricity": 0.00141965,
        "meta_inclination": 65.4111,
        "meta_ra_of_asc_node": 320.4673,
        "meta_arg_of_pericenter": 311.6327,
        "meta_mean_anomaly": 48.2397,
        "meta_ephemeris_type": 0,
        "meta_classification_type": "U",
        "meta_norad_cat_id": 39620,
        "meta_element_set_no": 999,
        "meta_rev_at_epoch": 9114,
        "meta_bstar": 0,
        "meta_mean_motion_dot": -4.9e-07,
        "meta_mean_motion_ddot": 0,
        "tle_line1": "1 39620U 14012A   25340.94173039 -.00000049  00000+0  00000+0 0  9990",
        "tle_line2": "2 39620  65.4111 320.4673 0014196 311.6327  48.2397  2.13103091 91147"
      },
      "geometry": {
        "type": "Point",
        "coordinates": [
          -31.40901718787948,
          17.273561416827704
        ]
      }
    },
    {
      "type": "Feature",
      "properties": {
        "norad_id": 40001,
        "name": "COSMOS 2500 (755)",
        "group": "glo-ops",
        "lat": -56.713030099723056,
        "lon": -175.45417883808,
        "alt_km": 19117.364668936436,
        "timestamp": "2025-12-08T08:59:01.026614+00:00",
        "meta_object_name": "COSMOS 2500 (755)",
        "meta_object_id": "2014-032A",
        "meta_epoch": "2025-12-07T02:44:10.438080",
        "meta_mean_motion": 2.13105901,
        "meta_eccentricity": 0.00081625,
        "meta_inclination": 65.3466,
        "meta_ra_of_asc_node": 320.2241,
        "meta_arg_of_pericenter": 219.2555,
        "meta_mean_anomaly": 140.6795,
        "meta_ephemeris_type": 0,
        "meta_classification_type": "U",
        "meta_norad_cat_id": 40001,
        "meta_element_set_no": 999,
        "meta_rev_at_epoch": 8936,
        "meta_bstar": 0,
        "meta_mean_motion_dot": -4.9e-07,
        "meta_mean_motion_ddot": 0,
        "tle_line1": "1 40001U 14032A   25341.11400970 -.00000049  00000+0  00000+0 0  9994",
        "tle_line2": "2 40001  65.3466 320.2241 0008162 219.2555 140.6795  2.13105901 89367"
      },
      "geometry": {
        "type": "Point",
        "coordinates": [
          -175.45417883808,
          -56.713030099723056
        ]
      }
    },
    {
      "type": "Feature",
      "properties": {
        "norad_id": 40315,
        "name": "COSMOS 2501 (702K)",
        "group": "glo-ops",
        "lat": 41.303479915835176,
        "lon": -137.15612523931551,
        "alt_km": 19172.514218925087,
        "timestamp": "2025-12-08T08:59:01.026625+00:00",
        "meta_object_name": "COSMOS 2501 (702K)",
        "meta_object_id": "2014-075A",
        "meta_epoch": "2025-12-06T21:42:23.948640",
        "meta_mean_motion": 2.13101325,
        "meta_eccentricity": 0.002014,
        "meta_inclination": 63.6139,
        "meta_ra_of_asc_node": 197.0273,
        "meta_arg_of_pericenter": 204.5326,
        "meta_mean_anomaly": 155.4549,
        "meta_ephemeris_type": 0,
        "meta_classification_type": "U",
        "meta_norad_cat_id": 40315,
        "meta_element_set_no": 999,
        "meta_rev_at_epoch": 8575,
        "meta_bstar": 0,
        "meta_mean_motion_dot": 6.6e-07,
        "meta_mean_motion_ddot": 0,
        "tle_line1": "1 40315U 14075A   25340.90444385  .00000066  00000+0  00000+0 0  9991",
        "tle_line2": "2 40315  63.6139 197.0273 0020140 204.5326 155.4549  2.13101325 85757"
      },
      "geometry": {
        "type": "Point",
        "coordinates": [
          -137.15612523931551,
          41.303479915835176
        ]
      }
    }
  ]
}